NORAD_CAT_ID,OBJECT_NAME,OBJECT_TYPE,EPOCH,MEAN_MOTION,ECCENTRICITY,INCLINATION,RA_OF_ASC_NODE,ARG_OF_PERICENTER,MEAN_ANOMALY,BSTAR,MEAN_MOTION_DOT,MEAN_MOTION_DDOT,TLE_LINE0,TLE_LINE1,TLE_LINE2,SEMIMAJOR_AXIS,PERIOD,APOGEE,PERIGEE,DECAYED
55940.0,STARLINK-5864,PAYLOAD,2024-04-11 03:17:02,14.98329096,0.0003021,70.0009,243.2263,271.6292,88.452,2.0042e-05,1.46e-06,0.0,0 STARLINK-5864,1 55940U 23037AC  24102.13682878  .00000146  00000-0  20042-4 0  9993,2 55940  70.0009 243.2263 0003021 271.6292  88.4520 14.98329096 59831,6950.196,96.107,574.16,569.961,0.0
55940.0,STARLINK-5864,PAYLOAD,2024-04-11 14:29:58,14.98329813,0.0003034,70.0005,242.0481,271.4688,88.6123,2.6916e-05,2.28e-06,0.0,0 STARLINK-5864,1 55940U 23037AC  24102.60414815  .00000228  00000-0  26916-4 0  9996,2 55940  70.0005 242.0481 0003034 271.4688  88.6123 14.98329813 59565,6950.193,96.107,574.167,569.95,0.0
55940.0,STARLINK-5864,PAYLOAD,2024-04-11 19:18:22,14.98334332,0.0003009,70.0006,241.5431,271.3165,88.7649,5.1132e-05,5.17e-06,0.0,0 STARLINK-5864,1 55940U 23037AC  24102.80442425  .00000517  00000-0  51132-4 0  9995,2 55940  70.0006 241.5431 0003009 271.3165  88.7649 14.98334332 59595,6950.179,96.107,574.136,569.953,0.0
55940.0,STARLINK-5864,PAYLOAD,2024-04-12 12:55:51,14.98328246,0.0002983,70.0006,239.6917,271.2935,88.7882,-2.2943e-06,-1.2e-06,0.0,0 STARLINK-5864,1 55940U 23037AC  24103.53878900 -.00000120  00000-0 -22943-5 0  9998,2 55940  70.0006 239.6917 0002983 271.2935  88.7882 14.98328246 60044,6950.198,96.107,574.137,569.99,0.0
55940.0,STARLINK-5864,PAYLOAD,2024-04-12 14:31:59,14.98328441,0.0002982,70.0006,239.5233,271.3124,88.7693,-4.2091e-07,-9.8e-07,0.0,0 STARLINK-5864,1 55940U 23037AC  24103.60554887 -.00000098  00000-0 -42091-6 0  9992,2 55940  70.0006 239.5233 0002982 271.3124  88.7693 14.98328441 59713,6950.198,96.107,574.135,569.99,0.0
55940.0,STARLINK-5864,PAYLOAD,2024-04-13 12:57:52,14.98305723,0.0003015,70.001,237.1683,267.9413,92.1401,0.00031391,3.652e-05,0.0,0 STARLINK-5864,1 55940U 23037AC  24104.54019628  .00003652  00000-0  31391-3 0  9990,2 55940  70.0010 237.1683 0003015 267.9413  92.1401 14.98305723 60199,6950.268,96.109,574.228,570.037,0.0
55940.0,STARLINK-5864,PAYLOAD,2024-04-13 14:34:00,14.98325901,0.00032,70.0004,236.9984,273.4756,86.6037,-7.833e-06,-1.86e-06,0.0,0 STARLINK-5864,1 55940U 23037AC  24104.60695137 -.00000186  00000-0 -78330-5 0  9999,2 55940  70.0004 236.9984 0003200 273.4756  86.6037 14.98325901 59866,6950.206,96.107,574.295,569.847,0.0
55940.0,STARLINK-5864,PAYLOAD,2024-04-13 17:46:16,14.98328495,0.0002716,70.0013,236.663,264.6484,95.4365,-2.6439e-05,-4.08e-06,0.0,0 STARLINK-5864,1 55940U 23037AC  24104.74047027 -.00000408  00000-0 -26439-4 0  9992,2 55940  70.0013 236.6630 0002716 264.6484  95.4365 14.98328495 60227,6950.198,96.107,573.95,570.175,0.0
55940.0,STARLINK-5864,PAYLOAD,2024-04-14 12:59:51,14.98341106,0.0002189,70.0043,234.6466,229.5929,130.5039,0.00022845,2.635e-05,0.0,0 STARLINK-5864,1 55940U 23037AC  24105.54157037  .00002635  00000-0  22845-3 0  9992,2 55940  70.0043 234.6466 0002189 229.5929 130.5039 14.98341106 60349,6950.159,96.106,573.545,570.502,0.0
55940.0,STARLINK-5864,PAYLOAD,2024-04-14 17:48:14,14.98355673,0.0002746,70.0012,234.1376,265.8391,94.2454,0.00029925,3.482e-05,0.0,0 STARLINK-5864,1 55940U 23037AC  24105.74183730  .00003482  00000-0  29925-3 0  9990,2 55940  70.0012 234.1376 0002746 265.8391  94.2454 14.98355673 60379,6950.114,96.105,573.887,570.07,0.0
55940.0,STARLINK-5864,PAYLOAD,2024-04-15 13:01:54,14.98319665,0.0002988,70.0011,232.1186,274.1246,85.9571,-0.00010648,-1.363e-05,0.0,0 STARLINK-5864,1 55940U 23037AC  24106.54298795 -.00001363  00000-0 -10648-3 0  9997,2 55940  70.0011 232.1186 0002988 274.1246  85.9571 14.98319665 60496,6950.225,96.108,574.167,570.013,0.0
55940.0,STARLINK-5864,PAYLOAD,2024-04-15 17:50:17,14.98324682,0.0003278,70.0004,231.6127,278.5805,81.4982,-4.6881e-05,-6.52e-06,0.0,0 STARLINK-5864,1 55940U 23037AC  24106.74326351 -.00000652  00000-0 -46881-4 0  9998,2 55940  70.0004 231.6127 0003278 278.5805  81.4982 14.98324682 60187,6950.209,96.107,574.353,569.796,0.0
55940.0,STARLINK-5864,PAYLOAD,2024-04-16 14:40:02,14.98339233,0.0002919,70.001,229.4247,273.9764,86.1061,-0.00024817,-3.054e-05,0.0,0 STARLINK-5864,1 55940U 23037AC  24107.61114071 -.00003054  00000-0 -24817-3 0  9992,2 55940  70.0010 229.4247 0002919 273.9764  86.1061 14.98339233 60319,6950.164,96.106,574.058,570.001,0.0
55940.0,STARLINK-5864,PAYLOAD,2024-04-16 17:52:17,14.98347545,0.0002789,70.0015,229.0892,272.9164,87.1676,-0.00011668,-1.485e-05,0.0,0 STARLINK-5864,1 55940U 23037AC  24107.74465070 -.00001485  00000-0 -11668-3 0  9990,2 55940  70.0015 229.0892 0002789 272.9164  87.1676 14.98347545 60671,6950.139,96.106,573.942,570.065,0.0
55940.0,STARLINK-5864,PAYLOAD,2024-04-17 13:05:55,14.98318911,0.0002526,70.0028,227.0717,258.7927,101.2948,0.00014078,1.587e-05,0.0,0 STARLINK-5864,1 55940U 23037AC  24108.54578120  .00001587  00000-0  14078-3 0  9999,2 55940  70.0028 227.0717 0002526 258.7927 101.2948 14.98318911 60795,6950.227,96.108,573.848,570.337,0.0
55940.0,STARLINK-5864,PAYLOAD,2024-04-17 14:42:03,14.98321039,0.0002595,70.0021,226.902,260.9632,99.1234,0.00013074,1.467e-05,0.0,0 STARLINK-5864,1 55940U 23037AC  24108.61254092  .00001467  00000-0  13074-3 0  9998,2 55940  70.0021 226.9020 0002595 260.9632  99.1234 14.98321039 60469,6950.221,96.108,573.889,570.282,0.0
55940.0,STARLINK-5864,PAYLOAD,2024-04-17 17:54:19,14.98332697,0.0002484,70.003,226.5677,255.3906,104.6978,-2.7647e-05,-4.23e-06,0.0,0 STARLINK-5864,1 55940U 23037AC  24108.74605726 -.00000423  00000-0 -27647-4 0  9991,2 55940  70.0030 226.5677 0002484 255.3906 104.6978 14.98332697 60821,6950.185,96.107,573.776,570.323,0.0
55940.0,STARLINK-5864,PAYLOAD,2024-04-18 11:31:48,14.98324953,0.0002413,70.0036,224.7166,240.3675,119.7244,-2.8495e-05,-4.33e-06,0.0,0 STARLINK-5864,1 55940U 23037AC  24109.48042640 -.00000433  00000-0 -28495-4 0  9996,2 55940  70.0036 224.7166 0002413 240.3675 119.7244 14.98324953 60930,6950.208,96.107,573.751,570.396,0.0
55940.0,STARLINK-5864,PAYLOAD,2024-04-18 14:44:05,14.98325248,0.0002449,70.0035,224.3805,243.2208,116.8701,-3.5895e-05,-5.21e-06,0.0,0 STARLINK-5864,1 55940U 23037AC  24109.61394714 -.00000521  00000-0 -35895-4 0  9993,2 55940  70.0035 224.3805 0002449 243.2208 116.8701 14.98325248 60617,6950.208,96.107,573.775,570.37,0.0
55940.0,STARLINK-5864,PAYLOAD,2024-04-18 17:56:21,14.98324985,0.0002416,70.0034,224.0434,248.4733,111.6168,-3.8325e-05,-5.5e-06,0.0,0 STARLINK-5864,1 55940U 23037AC  24109.74746775 -.00000550  00000-0 -38325-4 0  9998,2 55940  70.0034 224.0434 0002416 248.4733 111.6168 14.98324985 60634,6950.208,96.107,573.753,570.394,0.0
55940.0,STARLINK-5864,PAYLOAD,2024-04-19 11:33:49,14.98329193,0.0002628,70.0024,222.1896,256.632,103.4547,3.843e-05,3.66e-06,0.0,0 STARLINK-5864,1 55940U 23037AC  24110.48182315  .00000366  00000-0  38430-4 0  9995,2 55940  70.0024 222.1896 0002628 256.6320 103.4547 14.98329193 61088,6950.195,96.107,573.887,570.234,0.0
55940.0,STARLINK-5864,PAYLOAD,2024-04-19 14:46:05,14.9833439,0.000258,70.0024,221.8524,255.4373,104.65,0.00011665,1.299e-05,0.0,0 STARLINK-5864,1 55940U 23037AC  24110.61533733  .00001299  00000-0  11665-3 0  9990,2 55940  70.0024 221.8524 0002580 255.4373 104.6500 14.98334390 60765,6950.179,96.107,573.837,570.251,0.0
55940.0,STARLINK-5864,PAYLOAD,2024-04-19 16:22:13,14.98324083,0.0002655,70.0029,221.685,261.6465,98.4393,0.00038656,4.522e-05,0.0,0 STARLINK-5864,1 55940U 23037AC  24110.68209725  .00004522  00000-0  38656-3 0  9999,2 55940  70.0029 221.6850 0002655 261.6465  98.4393 14.98324083 60773,6950.211,96.107,573.921,570.231,0.0
55940.0,STARLINK-5864,PAYLOAD,2024-04-20 13:11:57,14.98338193,0.0002501,70.0023,219.4958,246.3029,113.7868,0.00018432,2.107e-05,0.0,0 STARLINK-5864,1 55940U 23037AC  24111.54996717  .00002107  00000-0  18432-3 0  9996,2 55940  70.0023 219.4958 0002501 246.3029 113.7868 14.98338193 61245,6950.168,96.106,573.771,570.294,0.0
55940.0,STARLINK-5864,PAYLOAD,2024-04-20 14:48:05,14.98339001,0.0002504,70.0024,219.3276,246.8021,113.2874,0.00018632,2.131e-05,0.0,0 STARLINK-5864,1 55940U 23037AC  24111.61672625  .00002131  00000-0  18632-3 0  9992,2 55940  70.0024 219.3276 0002504 246.8021 113.2874 14.98339001 60912,6950.165,96.106,573.77,570.29,0.0
55940.0,STARLINK-5864,PAYLOAD,2024-04-20 16:24:13,14.98341106,0.0002492,70.0027,219.1599,244.7089,115.3812,0.00020345,2.336e-05,0.0,0 STARLINK-5864,1 55940U 23037AC  24111.68348386  .00002336  00000-0  20345-3 0  9994,2 55940  70.0027 219.1599 0002492 244.7089 115.3812 14.98341106 60923,6950.159,96.106,573.756,570.292,0.0
55940.0,STARLINK-5864,PAYLOAD,2024-04-21 10:01:45,14.98305765,0.0002321,70.0021,217.3077,258.0306,102.0593,-0.00039855,-4.842e-05,0.0,0 STARLINK-5864,1 55940U 23037AC  24112.41788401 -.00004842  00000-0 -39855-3 0  9994,2 55940  70.0021 217.3077 0002321 258.0306 102.0593 14.98305765 61032,6950.268,96.109,573.746,570.52,0.0
55940.0,STARLINK-5864,PAYLOAD,2024-04-21 16:26:16,14.9831333,0.0002762,70.0027,216.6351,268.3113,91.773,-0.0001851,-2.3e-05,0.0,0 STARLINK-5864,1 55940U 23037AC  24112.68491597 -.00002300  00000-0 -18510-3 0  9992,2 55940  70.0027 216.6351 0002762 268.3113  91.7730 14.98313330 61410,6950.244,96.108,574.029,570.19,0.0
55940.0,STARLINK-5864,PAYLOAD,2024-04-22 10:03:44,14.98324524,0.0003045,70.0014,214.7824,270.6142,89.4668,-0.00015939,-1.994e-05,0.0,0 STARLINK-5864,1 55940U 23037AC  24113.41927042 -.00001994  00000-0 -15939-3 0  9993,2 55940  70.0014 214.7824 0003045 270.6142  89.4668 14.98324524 61526,6950.21,96.107,574.191,569.958,0.0
55940.0,STARLINK-5864,PAYLOAD,2024-04-22 16:28:16,14.98338704,0.0002664,70.0019,214.1101,255.1962,104.8902,-4.6012e-06,-1.48e-06,0.0,0 STARLINK-5864,1 55940U 23037AC  24113.68629632 -.00000148  00000-0 -46012-5 0  9994,2 55940  70.0019 214.1101 0002664 255.1962 104.8902 14.98338704 61569,6950.166,96.106,573.882,570.179,0.0
